{
  "52659": {
    "noradId": "52659",
    "tle": [
      "1 52659C 22053D   25320.83937500 -.00018480  00000+0 -11587-2 0  3200",
      "2 52659  53.2158 300.6784 0001172  85.2887  30.2287 15.08859912    11"
    ]
  },
  "52660": {
    "noradId": "52660",
    "tle": [
      "1 52660C 22053E   25320.84701389  .00005410  00000+0  33926-3 0  3206",
      "2 52660  53.2157 300.6919 0001401  81.1607  95.8532 15.08832664    17"
    ]
  },
  "52661": {
    "noradId": "52661",
    "tle": [
      "1 52661C 22053F   25320.84076389 -.00005841  00000+0 -36611-3 0  3206",
      "2 52661  53.2155 300.7199 0001509  70.7359  92.2397 15.08857638    12"
    ]
  },
  "52662": {
    "noradId": "52662",
    "tle": [
      "1 52662C 22053G   25320.84701389  .00004438  00000+0  27825-3 0  3208",
      "2 52662  53.2156 300.6915 0001362  91.4411 145.5715 15.08835699    14"
    ]
  },
  "52663": {
    "noradId": "52663",
    "tle": [
      "1 52663C 22053H   25320.83937500 -.00033192  00000+0 -20801-2 0  3201",
      "2 52663  53.2157 300.7276 0001474  84.3872 131.0326 15.08894144    11"
    ]
  },
  "52664": {
    "noradId": "52664",
    "tle": [
      "1 52664C 22053J   25320.83937500 -.00008051  00000+0 -50486-3 0  3201",
      "2 52664  53.2155 300.7270 0001367  92.7966  82.7057 15.08845065    13"
    ]
  },
  "52665": {
    "noradId": "52665",
    "tle": [
      "1 52665C 22053K   25320.83520833  .00003934  00000+0  24666-3 0  3203",
      "2 52665  53.2156 300.7428 0001496  94.4079 158.4485 15.08834390    12"
    ]
  },
  "52666": {
    "noradId": "52666",
    "tle": [
      "1 52666C 22053L   25320.83659722  .00033527  00000+0  21035-2 0  3201",
      "2 52666  53.2160 300.3519 0001710  68.3930 352.2129 15.08785745    18"
    ]
  },
  "52667": {
    "noradId": "52667",
    "tle": [
      "1 52667C 22053M   25320.84006944 -.00017305  00000+0 -10851-2 0  3207",
      "2 52667  53.2157 300.7214 0001271  86.5137 212.7579 15.08856382    19"
    ]
  },
  "52668": {
    "noradId": "52668",
    "tle": [
      "1 52668C 22053N   25320.84631944 -.00018497  00000+0 -11598-2 0  3204",
      "2 52668  53.2155 300.6932 0001616  93.0992 200.1284 15.08859265    16"
    ]
  },
  "52669": {
    "noradId": "52669",
    "tle": [
      "1 52669C 22053P   25320.84076389  .00001977  00000+0  12399-3 0  3205",
      "2 52669  53.2162 300.7188 0002058  87.2580 275.7922 15.08836991    16"
    ]
  },
  "52670": {
    "noradId": "52670",
    "tle": [
      "1 52670C 22053Q   25320.83520833 -.00030012  00000+0 -18812-2 0  3203",
      "2 52670  53.2152 300.8101 0001176  90.2049 122.5438 15.08884713    13"
    ]
  },
  "52671": {
    "noradId": "52671",
    "tle": [
      "1 52671C 22053R   25320.83590278 -.00004669  00000+0 -29280-3 0  3205",
      "2 52671  53.2161 300.7419 0001715  86.2030 270.4168 15.08842502    12"
    ]
  },
  "52672": {
    "noradId": "52672",
    "tle": [
      "1 52672C 22053S   25320.83520833 -.00014504  00000+0 -90953-3 0  3200",
      "2 52672  53.2159 300.7435 0001303  86.2680 206.5833 15.08852281    16"
    ]
  },
  "52673": {
    "noradId": "52673",
    "tle": [
      "1 52673C 22053T   25320.84215278  .00008620  00000+0  54052-3 0  3206",
      "2 52673  53.2164 300.7130 0001649  82.9035 347.6978 15.08828621    13"
    ]
  },
  "52674": {
    "noradId": "52674",
    "tle": [
      "1 52674C 22053U   25320.83729167 -.00025635  00000+0 -16065-2 0  3201",
      "2 52674  53.2161 300.7345 0001402 101.1672 222.9173 15.08887226    15"
    ]
  },
  "52675": {
    "noradId": "52675",
    "tle": [
      "1 52675C 22053V   25320.84701389  .00017310  00000+0  10861-2 0  3206",
      "2 52675  53.2154 290.6892 0001124  85.8630  26.1704 15.08797990    17"
    ]
  },
  "52676": {
    "noradId": "52676",
    "tle": [
      "1 52676C 22053W   25320.83868056 -.00005719  00000+0 -35867-3 0  3207",
      "2 52676  53.2162 300.7292 0001120  82.2948 309.4246 15.08842786    15"
    ]
  },
  "52678": {
    "noradId": "52678",
    "tle": [
      "1 52678C 22053Y   25320.84076389 -.00021026  00000+0 -13184-2 0  3206",
      "2 52678  53.2150 290.8243 0001325  90.2564 287.7084 15.08862437    12"
    ]
  },
  "52679": {
    "noradId": "52679",
    "tle": [
      "1 52679C 22053Z   25320.83729167 -.00019669  00000+0 -12333-2 0  3200",
      "2 52679  53.2161 290.7338 0001670  77.8501  81.3308 15.08860184    18"
    ]
  },
  "52680": {
    "noradId": "52680",
    "tle": [
      "1 52680C 22053AA  25320.83659722 -.00021006  00000+0 -13168-2 0  3206",
      "2 52680  53.2162 290.5065 0001895  85.1685 110.3340 15.08870231    13"
    ]
  },
  "52681": {
    "noradId": "52681",
    "tle": [
      "1 52681C 22053AB  25320.83590278  .00000332  00000+0  20823-4 0  3202",
      "2 52681  53.2164 290.7407 0001688  95.2256  76.3866 15.08840058    12"
    ]
  },
  "52682": {
    "noradId": "52682",
    "tle": [
      "1 52682C 22053AC  25320.83729167 -.00053107  00000+0 -33287-2 0  3200",
      "2 52682  53.2160 290.7351 0001005  86.3465  32.7653 15.08908905    19"
    ]
  },
  "52684": {
    "noradId": "52684",
    "tle": [
      "1 52684C 22053AE  25320.83729167 -.00003037  00000+0 -19037-3 0  3207",
      "2 52684  53.2159 290.7334 0001487  97.3813  41.7522 15.08852524    13"
    ]
  },
  "52685": {
    "noradId": "52685",
    "tle": [
      "1 52685C 22053AF  25320.83590278 -.00036983  00000+0 -23184-2 0  3200",
      "2 52685  53.2159 290.7429 0001296  90.6619 160.9152 15.08887185    11"
    ]
  },
  "52686": {
    "noradId": "52686",
    "tle": [
      "1 52686C 22053AG  25320.83590278 -.00007913  00000+0 -49624-3 0  3200",
      "2 52686  53.2152 291.0184 0001312  80.4187 325.8203 15.08842685    18"
    ]
  },
  "52687": {
    "noradId": "52687",
    "tle": [
      "1 52687C 22053AH  25320.83729167 -.00027888  00000+0 -17484-2 0  3203",
      "2 52687  53.2155 290.7348 0001318  90.2829 188.8622 15.08873620    13"
    ]
  },
  "52688": {
    "noradId": "52688",
    "tle": [
      "1 52688C 22053AJ  25320.83937500 -.00006159  00000+0 -38620-3 0  3200",
      "2 52688  53.2155 290.6096 0001406  84.0819 226.4734 15.08845765    13"
    ]
  },
  "52689": {
    "noradId": "52689",
    "tle": [
      "1 52689C 22053AK  25320.85256944  .00063342  00000+0  15642-2 0  3202",
      "2 52689  53.2165 259.8144 0003876 105.5866   6.5796 15.39862679    12"
    ]
  },
  "52690": {
    "noradId": "52690",
    "tle": [
      "1 52690C 22053AL  25320.84145833 -.00017469  00000+0 -10954-2 0  3209",
      "2 52690  53.2159 290.7170 0001396  94.1329 167.6641 15.08857455    12"
    ]
  },
  "52692": {
    "noradId": "52692",
    "tle": [
      "1 52692C 22053AN  25320.83520833 -.00004665  00000+0 -29243-3 0  3203",
      "2 52692  53.2154 290.4719 0001532  84.8704 343.1194 15.08853499    18"
    ]
  },
  "52693": {
    "noradId": "52693",
    "tle": [
      "1 52693C 22053AP  25320.84076389  .00011633  00000+0  72973-3 0  3206",
      "2 52693  53.2151 290.7166 0001620 111.9580 306.1261 15.08813298    14"
    ]
  },
  "52694": {
    "noradId": "52694",
    "tle": [
      "1 52694C 22053AQ  25320.84215278 -.00011351  00000+0 -71174-3 0  3200",
      "2 52694  53.2155 290.7130 0001386  87.8599 257.7149 15.08853573    16"
    ]
  },
  "52695": {
    "noradId": "52695",
    "tle": [
      "1 52695C 22053AR  25320.83520833 -.00020975  00000+0 -13149-2 0  3205",
      "2 52695  53.2162 295.5410 0001555  80.5440  19.9100 15.08869080    17"
    ]
  },
  "52697": {
    "noradId": "52697",
    "tle": [
      "1 52697C 22053AT  25320.83590278  .00005133  00000+0  32185-3 0  3206",
      "2 52697  53.2152 295.7395 0001406 100.3937 218.5398 15.08832215    15"
    ]
  },
  "52698": {
    "noradId": "52698",
    "tle": [
      "1 52698C 22053AU  25320.83729167 -.00007616  00000+0 -47762-3 0  3205",
      "2 52698  53.2157 295.7244 0001134  75.3075 196.3676 15.08844693    11"
    ]
  },
  "52699": {
    "noradId": "52699",
    "tle": [
      "1 52699C 22053AV  25320.83590278 -.00022006  00000+0 -13798-2 0  3206",
      "2 52699  53.2153 285.7692 0001325  89.7824 289.3169 15.08863903    12"
    ]
  },
  "52700": {
    "noradId": "52700",
    "tle": [
      "1 52700C 22053AW  25320.83798611  .00000028  00000+0  17787-5 0  3203",
      "2 52700  53.2163 295.3760 0001437  85.9647  49.7533 15.08829998    13"
    ]
  },
  "52702": {
    "noradId": "52702",
    "tle": [
      "1 52702C 22053AY  25320.83659722  .00004905  00000+0  30757-3 0  3202",
      "2 52702  53.2153 295.7644 0001190  89.9234 237.9511 15.08836088    16"
    ]
  },
  "52703": {
    "noradId": "52703",
    "tle": [
      "1 52703C 22053AZ  25320.83729167 -.00005352  00000+0 -33556-3 0  3203",
      "2 52703  53.2153 280.7472 0001584  95.8455  98.3195 15.08846768    11"
    ]
  },
  "52704": {
    "noradId": "52704",
    "tle": [
      "1 52704C 22053BA  25320.84076389 -.00002917  00000+0 -18289-3 0  3206",
      "2 52704  53.2154 280.7185 0001332  90.1733  42.8624 15.08844802    10"
    ]
  },
  "52705": {
    "noradId": "52705",
    "tle": [
      "1 52705C 22053BB  25320.84145833 -.00021328  00000+0 -13375-2 0  3205",
      "2 52705  53.2151 280.7149 0001368  92.7654 104.0639 15.08858672    14"
    ]
  },
  "52706": {
    "noradId": "52706",
    "tle": [
      "1 52706C 22053BC  25320.84076389 -.00005339  00000+0 -33475-3 0  3203",
      "2 52706  53.2151 280.7174 0001462  92.8806  80.1496 15.08848620    15"
    ]
  },
  "52707": {
    "noradId": "52707",
    "tle": [
      "1 52707C 22053BD  25320.84076389  .00005680  00000+0  35634-3 0  3200",
      "2 52707  53.2162 280.6021 0001456  91.2374 201.9177 15.08818489    13"
    ]
  },
  "52708": {
    "noradId": "52708",
    "tle": [
      "1 52708C 22053BE  25320.83868056 -.00028554  00000+0 -17905-2 0  3207",
      "2 52708  53.2160 280.7193 0001692  92.6348 309.0848 15.08868782    17"
    ]
  }
}